$$SOE
2459580.500000000, A.D. 2022-Jan-01 00:00:00.0000, -2.691953076688577E+08, 2.453155693113238E+07, -7.395745847314765E+07,
2459587.500000000, A.D. 2022-Jan-08 00:00:00.0000, -2.692145362918364E+08, 1.124819269441929E+07, -7.550510942006350E+07,
2459594.500000000, A.D. 2022-Jan-15 00:00:00.0000, -2.686374861309173E+08, -2.060062974199992E+06, -7.688550914892007E+07,
2459601.500000000, A.D. 2022-Jan-22 00:00:00.0000, -2.674628898919891E+08, -1.536371412520268E+07, -7.809487310670753E+07,
2459608.500000000, A.D. 2022-Jan-29 00:00:00.0000, -2.656909431828374E+08, -2.863302764165372E+07, -7.912980694177914E+07,
2459615.500000000, A.D. 2022-Feb-05 00:00:00.0000, -2.633233288120509E+08, -4.183811913583534E+07, -7.998732254652022E+07,
2459622.500000000, A.D. 2022-Feb-12 00:00:00.0000, -2.603632334405795E+08, -5.494904274643834E+07, -8.066485315864937E+07,
2459629.500000000, A.D. 2022-Feb-19 00:00:00.0000, -2.568153576053693E+08, -6.793588203016222E+07, -8.116026706905806E+07,
2459636.500000000, A.D. 2022-Feb-26 00:00:00.0000, -2.526859201564611E+08, -8.076884219939899E+07, -8.147187974179757E+07,
2459643.500000000, A.D. 2022-Mar-05 00:00:00.0000, -2.479826567297260E+08, -9.341834381581452E+07, -8.159846429075833E+07,
2459650.500000000, A.D. 2022-Mar-12 00:00:00.0000, -2.427148118636472E+08, -1.058551174586756E+08, -8.153926022433782E+07,
2459657.500000000, A.D. 2022-Mar-19 00:00:00.0000, -2.368931245617224E+08, -1.180502987677797E+08, -8.129398035000409E+07,
2459664.500000000, A.D. 2022-Mar-26 00:00:00.0000, -2.305298072003874E+08, -1.299755232874130E+08, -8.086281574315551E+07,
2459671.500000000, A.D. 2022-Apr-02 00:00:00.0000, -2.236385177010508E+08, -1.416030205843764E+08, -8.024643872141054E+07,
2459678.500000000, A.D. 2022-Apr-09 00:00:00.0000, -2.162343247529759E+08, -1.529057070433434E+08, -7.944600380887173E+07,
2459685.500000000, A.D. 2022-Apr-16 00:00:00.0000, -2.083336658575526E+08, -1.638572760827262E+08, -7.846314664843316E+07,
2459692.500000000, A.D. 2022-Apr-23 00:00:00.0000, -1.999542996493737E+08, -1.744322841023601E+08, -7.729998064488611E+07,
2459699.500000000, A.D. 2022-Apr-30 00:00:00.0000, -1.911152546037782E+08, -1.846062338188686E+08, -7.595909134799293E+07,
2459706.500000000, A.D. 2022-May-07 00:00:00.0000, -1.818367713636691E+08, -1.943556564023314E+08, -7.444352903123888E+07,
2459713.500000000, A.D. 2022-May-14 00:00:00.0000, -1.721402376458865E+08, -2.036581888490783E+08, -7.275679937616058E+07,
2459720.500000000, A.D. 2022-May-21 00:00:00.0000, -1.620481181527638E+08, -2.124926453410384E+08, -7.090285206062740E+07,
2459727.500000000, A.D. 2022-May-28 00:00:00.0000, -1.515838804019225E+08, -2.208390831037515E+08, -6.888606735091099E+07,
2459734.500000000, A.D. 2022-Jun-04 00:00:00.0000, -1.407719166673324E+08, -2.286788626814082E+08, -6.671124083628072E+07,
2459741.500000000, A.D. 2022-Jun-11 00:00:00.0000, -1.296374623931579E+08, -2.359947022921526E+08, -6.438356643235585E+07,
2459748.500000000, A.D. 2022-Jun-18 00:00:00.0000, -1.182065115853245E+08, -2.427707259759008E+08, -6.190861778997907E+07,
2459755.500000000, A.D. 2022-Jun-25 00:00:00.0000, -1.065057297232474E+08, -2.489925053493042E+08, -5.929232826020811E+07,
2459762.500000000, A.D. 2022-Jul-02 00:00:00.0000, -9.456236464268462E+07, -2.546470948718732E+08, -5.654096958319324E+07,
2459769.500000000, A.D. 2022-Jul-09 00:00:00.0000, -8.240415558698195E+07, -2.597230603454454E+08, -5.366112947682017E+07,
2459776.500000000, A.D. 2022-Jul-16 00:00:00.0000, -7.005924106523730E+07, -2.642104995251206E+08, -5.065968819039416E+07,
2459783.500000000, A.D. 2022-Jul-23 00:00:00.0000, -5.755606828746018E+07, -2.681010547836549E+08, -4.754379397729567E+07,
2459790.500000000, A.D. 2022-Jul-30 00:00:00.0000, -4.492330464508175E+07, -2.713879212618588E+08, -4.432083793341094E+07,
2459797.500000000, A.D. 2022-Aug-06 00:00:00.0000, -3.218974816908336E+07, -2.740658499978224E+08, -4.099842864651725E+07,
2459804.500000000, A.D. 2022-Aug-13 00:00:00.0000, -1.938423829574148E+07, -2.761311434758674E+08, -3.758436652289294E+07,
2459811.500000000, A.D. 2022-Aug-20 00:00:00.0000, -6.535568984203724E+06, -2.775816443386967E+08, -3.408661785062362E+07,
2459818.500000000, A.D. 2022-Aug-27 00:00:00.0000, 6.327595443799381E+06, -2.784167182708547E+08, -3.051328882184738E+07,
2459825.500000000, A.D. 2022-Sep-03 00:00:00.0000, 1.917680158979036E+07, -2.786372314813579E+08, -2.687259969507220E+07,
2459832.500000000, A.D. 2022-Sep-10 00:00:00.0000, 3.198388512215287E+07, -2.782455231063265E+08, -2.317285924481489E+07,
2459839.500000000, A.D. 2022-Sep-17 00:00:00.0000, 4.472104549733566E+07, -2.772453729030234E+08, -1.942243963438307E+07,
2459846.500000000, A.D. 2022-Sep-24 00:00:00.0000, 5.736091705690461E+07, -2.756419646831201E+08, -1.562975184568773E+07,
2459853.500000000, A.D. 2022-Oct-01 00:00:00.0000, 6.987663651955339E+07, -2.734418459243275E+08, -1.180322180207637E+07,
2459860.500000000, A.D. 2022-Oct-08 00:00:00.0000, 8.224190709587452E+07, -2.706528834614219E+08, -7.951267277593240E+06,
2459867.500000000, A.D. 2022-Oct-15 00:00:00.0000, 9.443105815835954E+07, -2.672842144795731E+08, -4.082275495395720E+06,
2459874.500000000, A.D. 2022-Oct-22 00:00:00.0000, 1.064190981922485E+08, -2.633461949097059E+08, -2.045814274095446E+05,
2459881.500000000, A.D. 2022-Oct-29 00:00:00.0000, 1.181817634754261E+08, -2.588503482278816E+08, 3.673552700213328E+06,
2459888.500000000, A.D. 2022-Nov-05 00:00:00.0000, 1.296955645777330E+08, -2.538093123224425E+08, 7.543956675594151E+06,
2459895.500000000, A.D. 2022-Nov-12 00:00:00.0000, 1.409378287398372E+08, -2.482367835562526E+08, 1.139857058808848E+07,
2459902.500000000, A.D. 2022-Nov-19 00:00:00.0000, 1.518867374685835E+08, -2.421474593538925E+08, 1.522946209403713E+07,
2459909.500000000, A.D. 2022-Nov-26 00:00:00.0000, 1.625213596975453E+08, -2.355569800667648E+08, 1.902884258805227E+07,
2459916.500000000, A.D. 2022-Dec-03 00:00:00.0000, 1.728216807923535E+08, -2.284818704634098E+08, 2.278908225777794E+07,
2459923.500000000, A.D. 2022-Dec-10 00:00:00.0000, 1.827686275812594E+08, -2.209394811415056E+08, 2.650272402403004E+07,
2459930.500000000, A.D. 2022-Dec-17 00:00:00.0000, 1.923440895847089E+08, -2.129479301777089E+08, 3.016249637514017E+07,
2459937.500000000, A.D. 2022-Dec-24 00:00:00.0000, 2.015309367125435E+08, -2.045260453434998E+08, 3.376132509900761E+07,
2459944.500000000, A.D. 2022-Dec-31 00:00:00.0000, 2.103130339559254E+08, -1.956933070128362E+08, 3.729234391184412E+07,
2459951.500000000, A.D. 2023-Jan-07 00:00:00.0000, 2.186752533752471E+08, -1.864697910039378E+08, 4.074890407568892E+07,
2459958.500000000, A.D. 2023-Jan-14 00:00:00.0000, 2.266034816085980E+08, -1.768761110312639E+08, 4.412458325073834E+07,
2459965.500000000, A.D. 2023-Jan-21 00:00:00.0000, 2.340846224667721E+08, -1.669333640872090E+08, 4.741319341352871E+07,
2459972.500000000, A.D. 2023-Jan-28 00:00:00.0000, 2.411065985065162E+08, -1.566630790843417E+08, 5.060878753295907E+07,
2459979.500000000, A.D. 2023-Feb-04 00:00:00.0000, 2.476583515931723E+08, -1.460871658585183E+08, 5.370566532568007E+07,
2459986.500000000, A.D. 2023-Feb-11 00:00:00.0000, 2.537298408613779E+08, -1.352278648343445E+08, 5.669837829511572E+07,
2459993.500000000, A.D. 2023-Feb-18 00:00:00.0000, 2.593120382023340E+08, -1.241076982547484E+08, 5.958173404362115E+07,
2460000.500000000, A.D. 2023-Feb-25 00:00:00.0000, 2.643969217271940E+08, -1.127494231887791E+08, 6.235079986860134E+07,
2460007.500000000, A.D. 2023-Mar-04 00:00:00.0000, 2.689774674925132E+08, -1.011759863310131E+08, 6.500090568252328E+07,
2460014.500000000, A.D. 2023-Mar-11 00:00:00.0000, 2.730476396957631E+08, -8.941048060864492E+07, 6.752764630268051E+07,
2460021.500000000, A.D. 2023-Mar-18 00:00:00.0000, 2.766023795600799E+08, -7.747610364986414E+07, 6.992688315083851E+07,
2460028.500000000, A.D. 2023-Mar-25 00:00:00.0000, 2.796375932718250E+08, -6.539611815276372E+07, 7.219474538596731E+07,
2460035.500000000, A.D. 2023-Apr-01 00:00:00.0000, 2.821501395435899E+08, -5.319381373642201E+07, 7.432763050525014E+07,
2460042.500000000, A.D. 2023-Apr-08 00:00:00.0000, 2.841378163342121E+08, -4.089246900977591E+07, 7.632220461573809E+07,
2460049.500000000, A.D. 2023-Apr-15 00:00:00.0000, 2.855993445331841E+08, -2.851531492637352E+07, 7.817540255063248E+07,
2460056.500000000, A.D. 2023-Apr-22 00:00:00.0000, 2.865343505419099E+08, -1.608550243541323E+07, 7.988442745593716E+07,
2460063.500000000, A.D. 2023-Apr-29 00:00:00.0000, 2.869433505934510E+08, -3.626072118752915E+06, 8.144674981502238E+07,
2460070.500000000, A.D. 2023-May-06 00:00:00.0000, 2.868277351531684E+08, 8.840076032812573E+06, 8.286010625382999E+07,
2460077.500000000, A.D. 2023-May-13 00:00:00.0000, 2.861897525190449E+08, 2.129021187808808E+07, 8.412249817852263E+07,
2460084.500000000, A.D. 2023-May-20 00:00:00.0000, 2.850324919408312E+08, 3.370180299831598E+07, 8.523219021628505E+07,
2460091.500000000, A.D. 2023-May-27 00:00:00.0000, 2.833598665263101E+08, 4.605254122867664E+07, 8.618770846854648E+07,
2460098.500000000, A.D. 2023-Jun-03 00:00:00.0000, 2.811765960577374E+08, 5.832036795079534E+07, 8.698783860037015E+07,
2460105.500000000, A.D. 2023-Jun-10 00:00:00.0000, 2.784881897991604E+08, 7.048349821074684E+07, 8.763162378747806E+07,
2460112.500000000, A.D. 2023-Jun-17 00:00:00.0000, 2.753009294332404E+08, 8.252044368161562E+07, 8.811836253100979E+07,
2460119.500000000, A.D. 2023-Jun-24 00:00:00.0000, 2.716218524902217E+08, 9.441003460336614E+07, 8.844760633600886E+07,
2460126.500000000, A.D. 2023-Jul-01 00:00:00.0000, 2.674587365518652E+08, 1.061314416014584E+08, 8.861915731191550E+07,
2460133.500000000, A.D. 2023-Jul-08 00:00:00.0000, 2.628200825715817E+08, 1.176641982869376E+08, 8.863306592620434E+07,
2460140.500000000, A.D. 2023-Jul-15 00:00:00.0000, 2.577150960569825E+08, 1.289882218941506E+08, 8.848962881735666E+07,
2460147.500000000, A.D. 2023-Jul-22 00:00:00.0000, 2.521536696578315E+08, 1.400838309921853E+08, 8.818938627531624E+07,
$$EOE